STARLINK-5183           
1 54084U 22136AK  26078.90142403  .00001613  00000+0  11939-3 0  9997
2 54084  53.2172 288.4254 0001345  89.4754 270.6393 15.08845326188522
STARLINK-5166           
1 54085U 22136AL  26078.89132336  .00000074  00000+0  22764-4 0  9999
2 54085  53.2177 288.3620 0001621  92.0640 268.0538 15.08837183188529
STARLINK-5211           
1 54086U 22136AM  26078.76111318  .00005638  00000+0  37235-3 0  9992
2 54086  53.2165 274.0108 0001254  69.9750 290.1377 15.08806889188714
STARLINK-5184           
1 54087U 22136AN  26078.85351801  .00000994  00000+0  80502-4 0  9992
2 54087  53.2178 288.1339 0001393  89.9195 270.1957 15.08846171188529
STARLINK-5153           
1 54088U 22136AP  26078.89773738 -.00000194  00000+0  58635-5 0  9990
2 54088  53.2175 288.4024 0001149  91.4672 268.6451 15.08834725188521
STARLINK-5143           
1 54089U 22136AQ  26078.80938770 -.00000729  00000+0 -27743-4 0  9991
2 54089  53.2172 288.5694 0001386  90.3573 269.7578 15.08832751188512
STARLINK-5177           
1 54090U 22136AR  26078.81307320 -.00001019  00000+0 -45930-4 0  9996
2 54090  53.2187 288.5853 0001422  92.6446 267.4709 15.08835499188515
STARLINK-5221           
1 54091U 22136AS  26078.84984228  .00000738  00000+0  64445-4 0  9995
2 54091  53.2172 288.1087 0001527  87.8033 272.3134 15.08842043188520
STARLINK-5190           
1 54092U 22136AT  26078.53448130  .00041867  00000+0  36328-3 0  9995
2 54092  53.1772 125.8425 0003911  14.7365 345.3766 15.68705973190773
STARLINK-5213           
1 54093U 22136AU  26078.86456992 -.00000258  00000+0  18679-5 0  9998
2 54093  53.2175 288.1945 0001456  84.0734 276.0424 15.08837932188520
STARLINK-5193           
1 54095U 22136AW  26078.85719916  .00000035  00000+0  20296-4 0  9996
2 54095  53.2169 288.1491 0000935  88.2463 271.8637 15.08848624188526
STARLINK-5188           
1 54096U 22136AX  26078.86825470 -.00000338  00000+0 -31464-5 0  9999
2 54096  53.2174 288.2172 0001370  88.0217 272.0932 15.08837777188527
STARLINK-5197           
1 54097U 22136AY  26078.80985586 -.00000609  00000+0 -20155-4 0  9994
2 54097  53.2171 263.6194 0001388  89.4675 270.6476 15.08832035188864
STARLINK-5217           
1 54098U 22136AZ  26078.85457648  .00005204  00000+0  34471-3 0  9992
2 54098  53.2162 288.8265 0001466  78.8695 281.2462 15.08849291188511
STARLINK-5198           
1 54099U 22136BA  26078.84615296 -.00000141  00000+0  92291-5 0  9999
2 54099  53.2169 288.0823 0001159 103.4558 256.6564 15.08838089188526
STARLINK-5185           
1 54100U 22136BB  26078.86088413 -.00000259  00000+0  18375-5 0  9990
2 54100  53.2178 288.1720 0001552  91.1488 268.9682 15.08842600188529
