[{"OBJECT_NAME":"STARLINK-5183","OBJECT_ID":"2022-136AK","EPOCH":"2026-03-19T21:38:03.036192","MEAN_MOTION":15.08845326,"ECCENTRICITY":0.00013456,"INCLINATION":53.2172,"RA_OF_ASC_NODE":288.4254,"ARG_OF_PERICENTER":89.4754,"MEAN_ANOMALY":270.6393,"EPHEMERIS_TYPE":0,"CLASSIFICATION_TYPE":"U","NORAD_CAT_ID":54084,"ELEMENT_SET_NO":999,"REV_AT_EPOCH":18852,"BSTAR":0.00011939461,"MEAN_MOTION_DOT":1.613e-5,"MEAN_MOTION_DDOT":0},{"OBJECT_NAME":"STARLINK-5166","OBJECT_ID":"2022-136AL","EPOCH":"2026-03-19T21:23:30.338304","MEAN_MOTION":15.08837183,"ECCENTRICITY":0.00016217,"INCLINATION":53.2177,"RA_OF_ASC_NODE":288.362,"ARG_OF_PERICENTER":92.064,"MEAN_ANOMALY":268.0538,"EPHEMERIS_TYPE":0,"CLASSIFICATION_TYPE":"U","NORAD_CAT_ID":54085,"ELEMENT_SET_NO":999,"REV_AT_EPOCH":18852,"BSTAR":2.2763983e-5,"MEAN_MOTION_DOT":7.4e-7,"MEAN_MOTION_DDOT":0},{"OBJECT_NAME":"STARLINK-5211","OBJECT_ID":"2022-136AM","EPOCH":"2026-03-19T18:16:00.178752","MEAN_MOTION":15.08806889,"ECCENTRICITY":0.00012549,"INCLINATION":53.2165,"RA_OF_ASC_NODE":274.0108,"ARG_OF_PERICENTER":69.975,"MEAN_ANOMALY":290.1377,"EPHEMERIS_TYPE":0,"CLASSIFICATION_TYPE":"U","NORAD_CAT_ID":54086,"ELEMENT_SET_NO":999,"REV_AT_EPOCH":18871,"BSTAR":0.00037235191,"MEAN_MOTION_DOT":5.638e-5,"MEAN_MOTION_DDOT":0},{"OBJECT_NAME":"STARLINK-5184","OBJECT_ID":"2022-136AN","EPOCH":"2026-03-19T20:29:03.956064","MEAN_MOTION":15.08846171,"ECCENTRICITY":0.00013934,"INCLINATION":53.2178,"RA_OF_ASC_NODE":288.1339,"ARG_OF_PERICENTER":89.9195,"MEAN_ANOMALY":270.1957,"EPHEMERIS_TYPE":0,"CLASSIFICATION_TYPE":"U","NORAD_CAT_ID":54087,"ELEMENT_SET_NO":999,"REV_AT_EPOCH":18852,"BSTAR":8.0502452e-5,"MEAN_MOTION_DOT":9.94e-6,"MEAN_MOTION_DDOT":0},{"OBJECT_NAME":"STARLINK-5153","OBJECT_ID":"2022-136AP","EPOCH":"2026-03-19T21:32:44.509632","MEAN_MOTION":15.08834725,"ECCENTRICITY":0.00011494,"INCLINATION":53.2175,"RA_OF_ASC_NODE":288.4024,"ARG_OF_PERICENTER":91.4672,"MEAN_ANOMALY":268.6451,"EPHEMERIS_TYPE":0,"CLASSIFICATION_TYPE":"U","NORAD_CAT_ID":54088,"ELEMENT_SET_NO":999,"REV_AT_EPOCH":18852,"BSTAR":5.863462e-6,"MEAN_MOTION_DOT":-1.94e-6,"MEAN_MOTION_DDOT":0},{"OBJECT_NAME":"STARLINK-5143","OBJECT_ID":"2022-136AQ","EPOCH":"2026-03-19T19:25:31.097280","MEAN_MOTION":15.08832751,"ECCENTRICITY":0.00013868,"INCLINATION":53.2172,"RA_OF_ASC_NODE":288.5694,"ARG_OF_PERICENTER":90.3573,"MEAN_ANOMALY":269.7578,"EPHEMERIS_TYPE":0,"CLASSIFICATION_TYPE":"U","NORAD_CAT_ID":54089,"ELEMENT_SET_NO":999,"REV_AT_EPOCH":18851,"BSTAR":-2.7742989e-5,"MEAN_MOTION_DOT":-7.29e-6,"MEAN_MOTION_DDOT":0},{"OBJECT_NAME":"STARLINK-5177","OBJECT_ID":"2022-136AR","EPOCH":"2026-03-19T19:30:49.524480","MEAN_MOTION":15.08835499,"ECCENTRICITY":0.0001422,"INCLINATION":53.2187,"RA_OF_ASC_NODE":288.5853,"ARG_OF_PERICENTER":92.6446,"MEAN_ANOMALY":267.4709,"EPHEMERIS_TYPE":0,"CLASSIFICATION_TYPE":"U","NORAD_CAT_ID":54090,"ELEMENT_SET_NO":999,"REV_AT_EPOCH":18851,"BSTAR":-4.5930002e-5,"MEAN_MOTION_DOT":-1.019e-5,"MEAN_MOTION_DDOT":0},{"OBJECT_NAME":"STARLINK-5221","OBJECT_ID":"2022-136AS","EPOCH":"2026-03-19T20:23:46.372992","MEAN_MOTION":15.08842043,"ECCENTRICITY":0.00015274,"INCLINATION":53.2172,"RA_OF_ASC_NODE":288.1087,"ARG_OF_PERICENTER":87.8033,"MEAN_ANOMALY":272.3134,"EPHEMERIS_TYPE":0,"CLASSIFICATION_TYPE":"U","NORAD_CAT_ID":54091,"ELEMENT_SET_NO":999,"REV_AT_EPOCH":18852,"BSTAR":6.4444936e-5,"MEAN_MOTION_DOT":7.38e-6,"MEAN_MOTION_DDOT":0},{"OBJECT_NAME":"STARLINK-5190","OBJECT_ID":"2022-136AT","EPOCH":"2026-03-19T12:49:39.184320","MEAN_MOTION":15.68705973,"ECCENTRICITY":0.00039114,"INCLINATION":53.1772,"RA_OF_ASC_NODE":125.8425,"ARG_OF_PERICENTER":14.7365,"MEAN_ANOMALY":345.3766,"EPHEMERIS_TYPE":0,"CLASSIFICATION_TYPE":"U","NORAD_CAT_ID":54092,"ELEMENT_SET_NO":999,"REV_AT_EPOCH":19077,"BSTAR":0.00036328388,"MEAN_MOTION_DOT":0.00041867,"MEAN_MOTION_DDOT":0},{"OBJECT_NAME":"STARLINK-5213","OBJECT_ID":"2022-136AU","EPOCH":"2026-03-19T20:44:58.841088","MEAN_MOTION":15.08837932,"ECCENTRICITY":0.00014569,"INCLINATION":53.2175,"RA_OF_ASC_NODE":288.1945,"ARG_OF_PERICENTER":84.0734,"MEAN_ANOMALY":276.0424,"EPHEMERIS_TYPE":0,"CLASSIFICATION_TYPE":"U","NORAD_CAT_ID":54093,"ELEMENT_SET_NO":999,"REV_AT_EPOCH":18852,"BSTAR":1.867927e-6,"MEAN_MOTION_DOT":-2.58e-6,"MEAN_MOTION_DDOT":0},{"OBJECT_NAME":"STARLINK-5193","OBJECT_ID":"2022-136AW","EPOCH":"2026-03-19T20:34:22.007424","MEAN_MOTION":15.08848624,"ECCENTRICITY":9.354e-5,"INCLINATION":53.2169,"RA_OF_ASC_NODE":288.1491,"ARG_OF_PERICENTER":88.2463,"MEAN_ANOMALY":271.8637,"EPHEMERIS_TYPE":0,"CLASSIFICATION_TYPE":"U","NORAD_CAT_ID":54095,"ELEMENT_SET_NO":999,"REV_AT_EPOCH":18852,"BSTAR":2.0296386e-5,"MEAN_MOTION_DOT":3.5e-7,"MEAN_MOTION_DDOT":0},{"OBJECT_NAME":"STARLINK-5188","OBJECT_ID":"2022-136AX","EPOCH":"2026-03-19T20:50:17.206080","MEAN_MOTION":15.08837777,"ECCENTRICITY":0.000137,"INCLINATION":53.2174,"RA_OF_ASC_NODE":288.2172,"ARG_OF_PERICENTER":88.0217,"MEAN_ANOMALY":272.0932,"EPHEMERIS_TYPE":0,"CLASSIFICATION_TYPE":"U","NORAD_CAT_ID":54096,"ELEMENT_SET_NO":999,"REV_AT_EPOCH":18852,"BSTAR":-3.146408e-6,"MEAN_MOTION_DOT":-3.38e-6,"MEAN_MOTION_DDOT":0},{"OBJECT_NAME":"STARLINK-5197","OBJECT_ID":"2022-136AY","EPOCH":"2026-03-19T19:26:11.546304","MEAN_MOTION":15.08832035,"ECCENTRICITY":0.00013887,"INCLINATION":53.2171,"RA_OF_ASC_NODE":263.6194,"ARG_OF_PERICENTER":89.4675,"MEAN_ANOMALY":270.6476,"EPHEMERIS_TYPE":0,"CLASSIFICATION_TYPE":"U","NORAD_CAT_ID":54097,"ELEMENT_SET_NO":999,"REV_AT_EPOCH":18886,"BSTAR":-2.0154889e-5,"MEAN_MOTION_DOT":-6.09e-6,"MEAN_MOTION_DDOT":0},{"OBJECT_NAME":"STARLINK-5217","OBJECT_ID":"2022-136AZ","EPOCH":"2026-03-19T20:30:35.407872","MEAN_MOTION":15.08849291,"ECCENTRICITY":0.00014669,"INCLINATION":53.2162,"RA_OF_ASC_NODE":288.8265,"ARG_OF_PERICENTER":78.8695,"MEAN_ANOMALY":281.2462,"EPHEMERIS_TYPE":0,"CLASSIFICATION_TYPE":"U","NORAD_CAT_ID":54098,"ELEMENT_SET_NO":999,"REV_AT_EPOCH":18851,"BSTAR":0.00034471369,"MEAN_MOTION_DOT":5.204e-5,"MEAN_MOTION_DDOT":0},{"OBJECT_NAME":"STARLINK-5198","OBJECT_ID":"2022-136BA","EPOCH":"2026-03-19T20:18:27.615744","MEAN_MOTION":15.08838089,"ECCENTRICITY":0.0001159,"INCLINATION":53.2169,"RA_OF_ASC_NODE":288.0823,"ARG_OF_PERICENTER":103.4558,"MEAN_ANOMALY":256.6564,"EPHEMERIS_TYPE":0,"CLASSIFICATION_TYPE":"U","NORAD_CAT_ID":54099,"ELEMENT_SET_NO":999,"REV_AT_EPOCH":18852,"BSTAR":9.22907e-6,"MEAN_MOTION_DOT":-1.41e-6,"MEAN_MOTION_DDOT":0},{"OBJECT_NAME":"STARLINK-5185","OBJECT_ID":"2022-136BB","EPOCH":"2026-03-19T20:39:40.388832","MEAN_MOTION":15.088426,"ECCENTRICITY":0.00015527,"INCLINATION":53.2178,"RA_OF_ASC_NODE":288.172,"ARG_OF_PERICENTER":91.1488,"MEAN_ANOMALY":268.9682,"EPHEMERIS_TYPE":0,"CLASSIFICATION_TYPE":"U","NORAD_CAT_ID":54100,"ELEMENT_SET_NO":999,"REV_AT_EPOCH":18852,"BSTAR":1.837498e-6,"MEAN_MOTION_DOT":-2.59e-6,"MEAN_MOTION_DDOT":0}]
